{
"type": "FeatureCollection",
"name": "00_KL_HK_RäumlicheAbgrenzung",
"crs": { "type": "name", "properties": { "name": "urn:ogc:def:crs:EPSG::25832" } },
"features": [
{ "type": "Feature", "properties": { "fid": 1 }, "geometry": { "type": "Polygon", "coordinates": [ [ [ 410681.350507982017007, 5477568.111529391258955 ], [ 410741.630082659889013, 5477632.009646565653384 ], [ 410786.388428088219371, 5477590.01726630423218 ], [ 410726.108853410114534, 5477526.119149129837751 ], [ 410681.350507982017007, 5477568.111529391258955 ] ] ] } }
]
}
