{
"type": "FeatureCollection",
"name": "01_KL_HK_RäumlicheAbgrenzung_minusGebäudePuffer",
"crs": { "type": "name", "properties": { "name": "urn:ogc:def:crs:EPSG::25832" } },
"features": [
{ "type": "Feature", "properties": { "fid": 1, "fid_2": null, "Layer": null, "PaperSpace": null, "SubClasses": null, "Linetype": null, "EntityHandle": null, "Text": null }, "geometry": { "type": "MultiPolygon", "coordinates": [ [ [ [ 410690.45804554031929, 5477577.76578632928431 ], [ 410691.538385958061554, 5477576.717096901498735 ], [ 410689.610192180029117, 5477574.717822837643325 ], [ 410688.546883908624295, 5477575.739898945204914 ], [ 410690.45804554031929, 5477577.76578632928431 ] ] ], [ [ [ 410741.630082659889013, 5477632.009646565653384 ], [ 410742.966406840190757, 5477630.755904216319323 ], [ 410743.86196860903874, 5477627.96995060518384 ], [ 410744.073545563966036, 5477627.551367613486946 ], [ 410744.231359148805495, 5477627.392468824051321 ], [ 410744.222633018740453, 5477627.185495926998556 ], [ 410744.134744132810738, 5477626.590068520046771 ], [ 410743.984153305471409, 5477626.007519792765379 ], [ 410743.773703022103291, 5477625.442083559930325 ], [ 410743.506047150644008, 5477624.903604292310774 ], [ 410743.183175434009172, 5477624.396347502246499 ], [ 410742.844079996400978, 5477623.970506719313562 ], [ 410740.519076059339568, 5477626.237072495743632 ], [ 410740.135886655014474, 5477626.508085316047072 ], [ 410739.687700661655981, 5477626.647410059347749 ], [ 410739.218396895914339, 5477626.641406393609941 ], [ 410738.773921670741402, 5477626.490662097930908 ], [ 410738.397790506889578, 5477626.20993551146239 ], [ 410731.334790506865829, 5477618.962935511954129 ], [ 410731.063837532419711, 5477618.57973031885922 ], [ 410730.924568032496609, 5477618.131549840793014 ], [ 410730.930615670164116, 5477617.662268304266036 ], [ 410731.081388417398557, 5477617.217825605534017 ], [ 410731.362126511288807, 5477616.84173006284982 ], [ 410742.459126511297654, 5477606.027730062603951 ], [ 410742.842306639708113, 5477605.756819296628237 ], [ 410743.290446022409014, 5477605.617568633519113 ], [ 410743.759682837233413, 5477605.623607285320759 ], [ 410744.204090342507698, 5477605.774344218894839 ], [ 410744.580171974899713, 5477606.055025994777679 ], [ 410751.66317197488388, 5477613.322025994770229 ], [ 410751.934072254167404, 5477613.705086880363524 ], [ 410752.07338106399402, 5477614.153099891729653 ], [ 410752.071548430540133, 5477614.298535790294409 ], [ 410752.369633845984936, 5477614.540621784515679 ], [ 410752.4870756942546, 5477614.646760864183307 ], [ 410753.58107569423737, 5477615.745760863646865 ], [ 410753.687980277522001, 5477615.86530614644289 ], [ 410754.657980277552269, 5477617.074306147173047 ], [ 410754.749893465137575, 5477617.202059260569513 ], [ 410755.587893465126399, 5477618.506059260107577 ], [ 410755.66725347697502, 5477618.645405545830727 ], [ 410755.733527610078454, 5477618.777762820012867 ], [ 410786.388428088219371, 5477590.01726630423218 ], [ 410778.763251821801532, 5477581.934355813078582 ], [ 410778.054951445839833, 5477583.620475783012807 ], [ 410773.545364089135546, 5477595.363569022156298 ], [ 410771.5354314398719, 5477600.601393507793546 ], [ 410771.534491428290494, 5477600.603836773894727 ], [ 410769.895491428265814, 5477604.852836773730814 ], [ 410769.677218767465092, 5477605.237511883489788 ], [ 410769.35624942719005, 5477605.541808741167188 ], [ 410768.960488894954324, 5477605.739271385595202 ], [ 410768.524345100566279, 5477605.812732161022723 ], [ 410768.085736946668476, 5477605.755804292857647 ], [ 410767.635110306786373, 5477605.627668092027307 ], [ 410767.250786841614172, 5477605.559551060199738 ], [ 410766.863474593614228, 5477605.531681728549302 ], [ 410766.473373493936379, 5477605.543850019574165 ], [ 410766.086864113167394, 5477605.596197300590575 ], [ 410765.700828007655218, 5477605.689105244353414 ], [ 410765.32802920974791, 5477605.821018665097654 ], [ 410764.971091550018173, 5477605.990886587649584 ], [ 410764.633199424366467, 5477606.197216460481286 ], [ 410764.255245307751466, 5477606.484771528281271 ], [ 410763.871579540078528, 5477606.696281575597823 ], [ 410763.443164591386449, 5477606.787914283573627 ], [ 410763.006546336284373, 5477606.751852937042713 ], [ 410762.598970431252383, 5477606.591173743829131 ], [ 410762.255205079447478, 5477606.319583419710398 ], [ 410755.261894981667865, 5477598.896500084549189 ], [ 410745.13861279404955, 5477588.304390075616539 ], [ 410744.872706597961951, 5477587.92122869566083 ], [ 410744.737340015301015, 5477587.474916432052851 ], [ 410744.687340015312657, 5477587.115916431881487 ], [ 410744.708121273142751, 5477586.586307707242668 ], [ 410744.911795740248635, 5477586.096987798810005 ], [ 410753.297795740247238, 5477573.071987798437476 ], [ 410753.303122315381188, 5477573.063773664645851 ], [ 410753.575836621341296, 5477572.646211101673543 ], [ 410755.06813463306753, 5477570.357823030091822 ], [ 410757.495739184843842, 5477566.287635455839336 ], [ 410757.514970126911066, 5477566.263988884165883 ], [ 410757.527848404773977, 5477566.236193211749196 ], [ 410760.155643683392555, 5477562.209745421074331 ], [ 410748.192111600015778, 5477549.528050518594682 ], [ 410745.919705069623888, 5477552.224529274739325 ], [ 410754.35629196127411, 5477559.333281456492841 ], [ 410754.665888937190175, 5477559.584828998893499 ], [ 410754.982925008051097, 5477559.939666679129004 ], [ 410755.172870606416836, 5477560.375949063338339 ], [ 410755.216611156298313, 5477560.849772252142429 ], [ 410755.109744965448044, 5477561.313454542309046 ], [ 410754.863026175939012, 5477561.720334731973708 ], [ 410746.275026175950188, 5477571.826334732584655 ], [ 410745.920678525639232, 5477572.13092561904341 ], [ 410745.489798259688541, 5477572.311701893806458 ], [ 410745.024197590129916, 5477572.351121199317276 ], [ 410744.569057964079548, 5477572.245358322747052 ], [ 410744.168545699096285, 5477572.004676394164562 ], [ 410734.14595151116373, 5477563.605520309880376 ], [ 410733.896913734322879, 5477563.549314518459141 ], [ 410733.488985130039509, 5477563.304525716230273 ], [ 410728.620985130022746, 5477559.206525716930628 ], [ 410728.313259526737966, 5477558.851202756166458 ], [ 410728.231992079818156, 5477558.658487944863737 ], [ 410718.186713486677036, 5477550.242816982790828 ], [ 410717.878284425998572, 5477549.888449243269861 ], [ 410717.694599347712938, 5477549.456055011600256 ], [ 410717.653676123532932, 5477548.988048313185573 ], [ 410717.759528957656585, 5477548.530336441472173 ], [ 410718.001774629170541, 5477548.127816858701408 ], [ 410726.538774629123509, 5477537.971816858276725 ], [ 410726.893211658054497, 5477537.664247050881386 ], [ 410727.325342853320763, 5477537.481251358054578 ], [ 410727.792872213292867, 5477537.440740973688662 ], [ 410728.250039045989979, 5477537.546680959872901 ], [ 410728.652096919540782, 5477537.788702157326043 ], [ 410737.444974508252926, 5477545.178752681240439 ], [ 410740.048885220719967, 5477542.081511730328202 ], [ 410738.380361345072743, 5477540.677842319011688 ], [ 410738.070511912810616, 5477540.319385926239192 ], [ 410737.887926518858876, 5477539.882167181931436 ], [ 410737.850822937965859, 5477539.409810345619917 ], [ 410737.962903244420886, 5477538.949445640668273 ], [ 410738.06205273832893, 5477538.789891008287668 ], [ 410730.591882035019808, 5477530.871290960349143 ], [ 410711.01797862717649, 5477548.536560936830938 ], [ 410710.620907993987203, 5477548.79429423250258 ], [ 410710.163292010547593, 5477548.915451779030263 ], [ 410709.690707508008927, 5477548.887966740876436 ], [ 410709.250222125730943, 5477548.71457652375102 ], [ 410708.885706551605836, 5477548.412550141103566 ], [ 410705.932685721549205, 5477545.048474995419383 ], [ 410699.906352585356217, 5477550.702394286170602 ], [ 410702.536110904824454, 5477554.054074381478131 ], [ 410702.545756122155581, 5477554.066501029767096 ], [ 410705.359756122110412, 5477557.731501028873026 ], [ 410705.572382962855045, 5477558.112719974480569 ], [ 410705.666250991984271, 5477558.539014298468828 ], [ 410705.633411128772423, 5477558.974283871240914 ], [ 410705.476644370355643, 5477559.381668507121503 ], [ 410705.209226287377533, 5477559.726669414900243 ], [ 410702.635401895327959, 5477562.199500697664917 ], [ 410700.634731082885992, 5477564.122923026792705 ], [ 410703.416246622917242, 5477567.016333818435669 ], [ 410726.757128890021704, 5477591.285211404785514 ], [ 410727.025767576415092, 5477591.670685481280088 ], [ 410727.161974862392526, 5477592.120357120409608 ], [ 410727.152386875473894, 5477592.590107136406004 ], [ 410726.997944333706982, 5477593.033846371807158 ], [ 410726.713800247351173, 5477593.408037694171071 ], [ 410725.779384069261141, 5477594.303424203768373 ], [ 410726.4281194981304, 5477594.959015801548958 ], [ 410726.858225037227385, 5477594.558830647729337 ], [ 410727.247762920334935, 5477594.296751392073929 ], [ 410727.699239046662115, 5477594.167931338772178 ], [ 410728.168423745024484, 5477594.184990576468408 ], [ 410728.474108093010727, 5477594.29679296258837 ], [ 410729.996892655384727, 5477592.924653356894851 ], [ 410730.376937273249496, 5477592.674981776624918 ], [ 410730.814331815985497, 5477592.550660324282944 ], [ 410731.268880734278355, 5477592.563113855198026 ], [ 410731.698812031012494, 5477592.711197917349637 ], [ 410732.064616011979524, 5477592.981303928419948 ], [ 410735.280616011994425, 5477596.215303928591311 ], [ 410735.793747954478022, 5477596.731436626054347 ], [ 410736.071489610185381, 5477597.117877339012921 ], [ 410736.214201779745053, 5477597.571870828978717 ], [ 410736.207519572926685, 5477598.04771975427866 ], [ 410736.052115596423391, 5477598.497526886872947 ], [ 410735.763632251939271, 5477598.876016268506646 ], [ 410733.177649067016318, 5477601.335000279359519 ], [ 410724.152218943927437, 5477609.917816616594791 ], [ 410724.113014715723693, 5477610.023913059383631 ], [ 410723.205443032609764, 5477612.478988161310554 ], [ 410741.630082659889013, 5477632.009646565653384 ] ] ] ] } }
]
}
