{
"type": "FeatureCollection",
"name": "02_KL_HK_RäumlicheAbgrenzung_minusStrassenPuffer",
"crs": { "type": "name", "properties": { "name": "urn:ogc:def:crs:EPSG::25832" } },
"features": [
{ "type": "Feature", "properties": { "fid": 1, "fid_2": null, "Layer": null, "PaperSpace": null, "SubClasses": null, "Linetype": null, "EntityHandle": null, "Text": null }, "geometry": { "type": "MultiPolygon", "coordinates": [ [ [ [ 410741.630082659889013, 5477632.009646565653384 ], [ 410760.819958010630216, 5477614.005662388168275 ], [ 410762.462008982547559, 5477605.12732074316591 ], [ 410762.549928140826523, 5477604.873056880198419 ], [ 410762.709071957913693, 5477604.656139533035457 ], [ 410762.925219678261783, 5477604.495951976627111 ], [ 410763.179056797816884, 5477604.406808232888579 ], [ 410767.836408494447824, 5477603.522191810421646 ], [ 410769.295022494334262, 5477599.74083068408072 ], [ 410771.304741136089433, 5477594.503563895821571 ], [ 410775.822821577137802, 5477582.738354345783591 ], [ 410775.833238945051562, 5477582.712436387315392 ], [ 410776.962124176614452, 5477580.025107681751251 ], [ 410761.849736330797896, 5477564.005533315241337 ], [ 410757.52850137342466, 5477570.627979408949614 ], [ 410756.970644984743558, 5477571.528379194438457 ], [ 410755.336930950987153, 5477574.336574231274426 ], [ 410755.315722555853426, 5477574.371207320131361 ], [ 410746.929722555854823, 5477587.396207320503891 ], [ 410746.742868090223055, 5477587.605599138885736 ], [ 410746.500603081251029, 5477587.74725784920156 ], [ 410746.226483920414466, 5477587.807409411296248 ], [ 410745.947164305136539, 5477587.780205049552023 ], [ 410745.689803593500983, 5477587.668289952911437 ], [ 410745.479425992176402, 5477587.482546071521938 ], [ 410745.336487352964468, 5477587.241034021601081 ], [ 410745.274886168714147, 5477586.967236981727183 ], [ 410744.233886168687604, 5477570.913236982189119 ], [ 410744.277634407102596, 5477570.572052242234349 ], [ 410744.446184294414707, 5477570.272199161350727 ], [ 410752.542156120704021, 5477560.745197381824255 ], [ 410752.528653671499342, 5477560.714289981871843 ], [ 410752.501884266617708, 5477560.430792359635234 ], [ 410752.565023456700146, 5477560.15312178991735 ], [ 410752.711750502232462, 5477559.909075325354934 ], [ 410754.194138974824455, 5477558.149789739400148 ], [ 410755.137529153726064, 5477556.89039683714509 ], [ 410734.072902640444227, 5477534.56127490196377 ], [ 410728.331100023759063, 5477539.569447858259082 ], [ 410719.838935222534928, 5477549.672109885141253 ], [ 410719.59792275208747, 5477549.873618477955461 ], [ 410719.30233408807544, 5477549.980014275759459 ], [ 410718.988184601708781, 5477549.9783337097615 ], [ 410709.851184601662681, 5477548.308333709836006 ], [ 410709.582411973446142, 5477548.213312566280365 ], [ 410709.356840477674268, 5477548.038998929783702 ], [ 410709.197101825906429, 5477547.802881783805788 ], [ 410709.119222684705164, 5477547.528650891035795 ], [ 410709.13101671077311, 5477547.243819986470044 ], [ 410709.231300603132695, 5477546.976966310292482 ], [ 410709.410012823645957, 5477546.75486343819648 ], [ 410728.944575702189468, 5477529.125097932294011 ], [ 410726.108853410114534, 5477526.119149129837751 ], [ 410681.350507982017007, 5477568.111529391258955 ], [ 410741.630082659889013, 5477632.009646565653384 ] ] ] ] } }
]
}
