{
"type": "FeatureCollection",
"name": "04_KL_HK_RäumlicheAbgrenzung_minusAchsen",
"crs": { "type": "name", "properties": { "name": "urn:ogc:def:crs:EPSG::25832" } },
"features": [
{ "type": "Feature", "properties": { "fid": 1, "fid_2": null }, "geometry": { "type": "MultiPolygon", "coordinates": [ [ [ [ 410729.256769263301976, 5477618.893571452237666 ], [ 410747.544587786658667, 5477601.06879938673228 ], [ 410738.395986309333239, 5477591.478855749592185 ], [ 410738.394979078904726, 5477591.48043298907578 ], [ 410738.36311996774748, 5477591.44694634154439 ], [ 410730.76492060883902, 5477598.253566377796233 ], [ 410729.724460512341466, 5477597.173083713278174 ], [ 410737.329403794952668, 5477590.360422334633768 ], [ 410739.466164956160355, 5477587.014606846496463 ], [ 410739.439364553312771, 5477587.039869054220617 ], [ 410702.7089606289519, 5477548.072981121018529 ], [ 410681.350507982017007, 5477568.111529391258955 ], [ 410729.256769263301976, 5477618.893571452237666 ] ] ], [ [ [ 410741.630082659889013, 5477632.009646565653384 ], [ 410760.327152282290626, 5477614.46801383048296 ], [ 410748.580040810164064, 5477602.154204206541181 ], [ 410732.408999999985099, 5477617.916000000201166 ], [ 410730.286251247860491, 5477619.984852551482618 ], [ 410741.630082659889013, 5477632.009646565653384 ] ] ], [ [ [ 410786.388428088219371, 5477590.01726630423218 ], [ 410758.325940360489767, 5477560.270206232555211 ], [ 410742.726244113466237, 5477584.698032382875681 ], [ 410739.222089746617712, 5477590.185246513225138 ], [ 410741.090233893715777, 5477592.173579690046608 ], [ 410758.214233893726487, 5477610.196579690091312 ], [ 410758.340682154463138, 5477610.222927932627499 ], [ 410761.418915097601712, 5477613.443719503469765 ], [ 410786.388428088219371, 5477590.01726630423218 ] ] ], [ [ [ 410726.108853410114534, 5477526.119149129837751 ], [ 410703.802886041929014, 5477547.046657840721309 ], [ 410723.988620727905072, 5477568.461485267616808 ], [ 410729.754107782791834, 5477561.612683172337711 ], [ 410730.901633501402102, 5477562.578698044642806 ], [ 410725.024537632649299, 5477569.560478297993541 ], [ 410740.2782648470602, 5477585.742992385290563 ], [ 410757.264614989457186, 5477559.14517021086067 ], [ 410726.108853410114534, 5477526.119149129837751 ] ] ] ] } }
]
}
