{
  "type": "FeatureCollection",
  "features": [
    {
      "type": "Feature",
      "properties": {
        "size_m": 300,
        "center": [
          7.76846,
          49.44426
        ]
      },
      "geometry": {
        "type": "Polygon",
        "coordinates": [
          [
            [
              7.766387572024726,
              49.44560746676249
            ],
            [
              7.770532427975274,
              49.44560746676249
            ],
            [
              7.770532427975274,
              49.44291253323751
            ],
            [
              7.766387572024726,
              49.44291253323751
            ],
            [
              7.766387572024726,
              49.44560746676249
            ]
          ]
        ]
      }
    }
  ]
}