{
  "type": "FeatureCollection",
  "features": [
    {
      "type": "Feature",
      "properties": {
        "size_m": 300,
        "center": [
          8.466304325,
          49.486004875
        ]
      },
      "geometry": {
        "type": "Polygon",
        "coordinates": [
          [
            [
              8.464230130535356,
              49.48735234176249
            ],
            [
              8.468378519464643,
              49.48735234176249
            ],
            [
              8.468378519464643,
              49.48465740823751
            ],
            [
              8.464230130535356,
              49.48465740823751
            ],
            [
              8.464230130535356,
              49.48735234176249
            ]
          ]
        ]
      }
    }
  ]
}