{
  "type": "FeatureCollection",
  "features": [
    {
      "type": "Feature",
      "properties": {
        "size_m": 300,
        "center": [
          8.483312,
          49.469456
        ]
      },
      "geometry": {
        "type": "Polygon",
        "coordinates": [
          [
            [
              8.481238506314645,
              49.47080346676249
            ],
            [
              8.485385493685355,
              49.47080346676249
            ],
            [
              8.485385493685355,
              49.46810853323751
            ],
            [
              8.481238506314645,
              49.46810853323751
            ],
            [
              8.481238506314645,
              49.47080346676249
            ]
          ]
        ]
      }
    }
  ]
}