{
"type": "FeatureCollection",
"name": "00_MA_RäumlicheAbgrenzung",
"crs": { "type": "name", "properties": { "name": "urn:ogc:def:crs:EPSG::25832" } },
"features": [
{ "type": "Feature", "properties": { "fid": 1 }, "geometry": { "type": "Polygon", "coordinates": [ [ [ 461407.509999999660067, 5481612.689999996684492 ], [ 461309.263730171194766, 5481670.465765087865293 ], [ 461277.72221668146085, 5481617.116459806449711 ], [ 461376.335987356433179, 5481559.831114057451487 ], [ 461407.509999999660067, 5481612.689999996684492 ] ] ] } }
]
}
