{
"type": "FeatureCollection",
"name": "01_MA_RäumlicheAbgrenzung_minusGebäudePuffer",
"crs": { "type": "name", "properties": { "name": "urn:ogc:def:crs:EPSG::25832" } },
"features": [
{ "type": "Feature", "properties": { "fid": 1, "fid_2": null, "gml_id": null, "gebaeudefunktion_id": null, "gebaeudefunktion_kuerzel": null, "gebaeudefunktion_name": null, "lage_id": null, "adressen": null, "hochhaus": null, "lage_oberflaeche_id": null, "lage_oberflaeche_name": null, "nutzung_id": null, "nutzung_name": null, "eigenname": null, "qualitaet": null, "klasse": null, "beginn": null, "ende": null }, "geometry": { "type": "MultiPolygon", "coordinates": [ [ [ [ 461370.94408995565027, 5481594.887744406238198 ], [ 461370.317007268546149, 5481595.887817650102079 ], [ 461368.393891790066846, 5481597.495025724172592 ], [ 461316.284712992375717, 5481628.650185538455844 ], [ 461313.906573868007399, 5481629.595174823887646 ], [ 461311.351712849165779, 5481629.740899282507598 ], [ 461310.623533595877234, 5481629.543846920132637 ], [ 461316.763931894092821, 5481639.623533459380269 ], [ 461317.513963664358016, 5481639.565960199572146 ], [ 461319.948241359496024, 5481640.155934041365981 ], [ 461322.080765930586495, 5481641.469751374796033 ], [ 461323.702490757917985, 5481643.378621621057391 ], [ 461323.979752551880665, 5481643.833852670155466 ], [ 461325.264865823148284, 5481642.747642028145492 ], [ 461354.894865822454449, 5481624.797642024233937 ], [ 461355.298597962420899, 5481624.632425527088344 ], [ 461376.914812626724597, 5481611.493742408230901 ], [ 461379.233445892867167, 5481610.543661387637258 ], [ 461380.278471192112193, 5481610.465789536014199 ], [ 461370.94408995565027, 5481594.887744406238198 ] ] ] ] } }
]
}
