{
"type": "FeatureCollection",
"name": "05_MA_RäumlicheAbgrenzung_minusStrassenPuffer",
"crs": { "type": "name", "properties": { "name": "urn:ogc:def:crs:EPSG::25832" } },
"features": [
{ "type": "Feature", "properties": { "fid": 1, "fid_2": null, "gen_id": null, "pg_pk": null, "a03_art": null, "a04_art": null, "a05_belag": null, "a06_belag": null, "pk": null, "z": null }, "geometry": { "type": "MultiPolygon", "coordinates": [ [ [ [ 461407.509999999660067, 5481612.689999996684492 ], [ 461376.335987356433179, 5481559.831114057451487 ], [ 461365.424332227732521, 5481566.169761615805328 ], [ 461372.476384108595084, 5481577.83971937187016 ], [ 461378.882013768830802, 5481588.331836868077517 ], [ 461378.893134375161026, 5481588.350274319760501 ], [ 461397.057943426712882, 5481618.836549543775618 ], [ 461407.509999999660067, 5481612.689999996684492 ] ] ], [ [ [ 461383.793100276438054, 5481626.637216817587614 ], [ 461352.033453401352745, 5481573.94860546477139 ], [ 461302.833382771292236, 5481602.529229019768536 ], [ 461326.990883248276077, 5481641.966354576870799 ], [ 461331.078300391032826, 5481648.622405437752604 ], [ 461331.079676716821268, 5481648.624649992212653 ], [ 461335.136643225094303, 5481655.250659726560116 ], [ 461383.793100276438054, 5481626.637216817587614 ] ] ], [ [ [ 461277.72221668146085, 5481617.116459806449711 ], [ 461309.263730171194766, 5481670.465765087865293 ], [ 461321.972166012099478, 5481662.992304719984531 ], [ 461289.613262419996317, 5481610.208878220058978 ], [ 461277.72221668146085, 5481617.116459806449711 ] ] ] ] } }
]
}
