{
"type": "FeatureCollection",
"name": "06_MA_RäumlicheAbgrenzung_minusZusatzparameter",
"crs": { "type": "name", "properties": { "name": "urn:ogc:def:crs:EPSG::25832" } },
"features": [
{ "type": "Feature", "properties": { "fid": 1, "fid_2": null, "Typ": null }, "geometry": { "type": "MultiPolygon", "coordinates": [ [ [ [ 461376.335987356433179, 5481559.831114057451487 ], [ 461277.72221668146085, 5481617.116459806449711 ], [ 461309.263730171194766, 5481670.465765087865293 ], [ 461407.509999999660067, 5481612.689999996684492 ], [ 461376.335987356433179, 5481559.831114057451487 ] ], [ [ 461367.955704574822448, 5481595.815128640271723 ], [ 461373.617358554736711, 5481605.286201943643391 ], [ 461366.892574282013811, 5481609.306168891489506 ], [ 461364.342272338923067, 5481610.830698021687567 ], [ 461361.171285096090287, 5481605.526125766336918 ], [ 461363.721587039239239, 5481604.001596636138856 ], [ 461361.230920302157756, 5481599.835095588117838 ], [ 461367.955704574822448, 5481595.815128640271723 ] ], [ [ 461316.625485774187837, 5481620.727417199872434 ], [ 461317.532400645548478, 5481622.23468054458499 ], [ 461313.712559981562663, 5481624.439271494746208 ], [ 461312.179443361936137, 5481621.783835615962744 ], [ 461315.915471034997609, 5481619.552234745584428 ], [ 461315.914530162350275, 5481619.550668592564762 ], [ 461364.288622159627266, 5481590.628675801679492 ], [ 461365.846371805178933, 5481593.221666320227087 ], [ 461359.837300921964925, 5481596.83164019882679 ], [ 461359.484109869168606, 5481596.243727337568998 ], [ 461356.474969245144166, 5481598.051480858586729 ], [ 461358.995926860836335, 5481602.247802915051579 ], [ 461350.652384880173486, 5481607.260184262879193 ], [ 461350.652400590304751, 5481607.260210413485765 ], [ 461332.490376395988278, 5481618.171120620332658 ], [ 461330.850645089405589, 5481615.441665509715676 ], [ 461329.411529046716169, 5481613.046149475499988 ], [ 461316.625485774187837, 5481620.727417199872434 ] ], [ [ 461364.770667528326157, 5481619.762265670113266 ], [ 461364.144039721868467, 5481620.963167342357337 ], [ 461363.183390999154653, 5481621.878395327366889 ], [ 461361.975011759728659, 5481622.463025323115289 ], [ 461360.648180673073512, 5481622.627515147440135 ], [ 461359.33280368411215, 5481622.370945238508284 ], [ 461358.158943584712688, 5481621.71455164346844 ], [ 461357.271254087390844, 5481620.701623854227364 ], [ 461356.713507765613031, 5481619.398322253488004 ], [ 461356.645733635814395, 5481617.98076814878732 ], [ 461357.040318604384083, 5481616.626411254517734 ], [ 461357.883769869979005, 5481615.468287809751928 ], [ 461359.06187007954577, 5481614.684460698626935 ], [ 461360.430592644552235, 5481614.320263135246933 ], [ 461361.860501736809965, 5481614.443081769160926 ], [ 461363.149364049721044, 5481615.032191368751228 ], [ 461364.123030240356456, 5481615.955883926711977 ], [ 461364.752004954207223, 5481617.125741033814847 ], [ 461364.977924888429698, 5481618.453548626042902 ], [ 461364.770667528326157, 5481619.762265670113266 ] ], [ [ 461342.750037756050006, 5481615.8233143966645 ], [ 461344.904142733081244, 5481619.374172952026129 ], [ 461341.075535212701652, 5481621.69677251111716 ], [ 461338.921430235612206, 5481618.145913955755532 ], [ 461342.750037756050006, 5481615.8233143966645 ] ], [ [ 461337.130089187412523, 5481628.19433477986604 ], [ 461347.521679170080461, 5481621.8990583634004 ], [ 461353.339537770079914, 5481631.502576485276222 ], [ 461342.947947787644807, 5481637.797852901741862 ], [ 461337.130089187412523, 5481628.19433477986604 ] ], [ [ 461319.834049136668909, 5481633.634089708328247 ], [ 461332.44374081044225, 5481625.995083605870605 ], [ 461340.494376364862546, 5481639.284238560125232 ], [ 461327.884696000430267, 5481646.923245060257614 ], [ 461319.834049136668909, 5481633.634089708328247 ] ] ] ] } }
]
}
