{
"type": "FeatureCollection",
"name": "07_MA_RäumlicheAbgrenzung_minusAchsen",
"crs": { "type": "name", "properties": { "name": "urn:ogc:def:crs:EPSG::25832" } },
"features": [
{ "type": "Feature", "properties": { "fid": 1, "fid_2": null, "Art": null }, "geometry": { "type": "MultiPolygon", "coordinates": [ [ [ [ 461376.335987356433179, 5481559.831114057451487 ], [ 461277.72221668146085, 5481617.116459806449711 ], [ 461309.263730171194766, 5481670.465765087865293 ], [ 461407.509999999660067, 5481612.689999996684492 ], [ 461376.335987356433179, 5481559.831114057451487 ] ], [ [ 461365.161938835284673, 5481612.088292219676077 ], [ 461370.987177486123983, 5481621.784836611710489 ], [ 461386.266386939270888, 5481612.539229033514857 ], [ 461387.045176637126133, 5481613.820520706474781 ], [ 461380.681973643426318, 5481617.688177881762385 ], [ 461328.769962015096098, 5481649.100672723725438 ], [ 461327.961062781396322, 5481647.820383373647928 ], [ 461369.70383394905366, 5481622.561401051469147 ], [ 461362.935051298351027, 5481611.294257260859013 ], [ 461339.594748190254904, 5481625.413905850611627 ], [ 461337.932477533468045, 5481622.670001697726548 ], [ 461319.150189920095727, 5481634.048404086381197 ], [ 461318.32417143357452, 5481632.684898363426328 ], [ 461338.491227362537757, 5481620.467596495524049 ], [ 461340.202506058267318, 5481623.292398039251566 ], [ 461362.162872909219004, 5481610.008908714167774 ], [ 461358.64851409610128, 5481604.158996237441897 ], [ 461316.613030030101072, 5481629.411984994076192 ], [ 461315.825945067917928, 5481628.182345818728209 ], [ 461358.993962120788638, 5481602.244399885646999 ], [ 461357.306985995499417, 5481599.43647282756865 ], [ 461372.80573268228909, 5481590.130120811983943 ], [ 461373.578189145482611, 5481591.415932233445346 ], [ 461359.331530398107134, 5481599.970087305642664 ], [ 461360.997589417267591, 5481602.743196278810501 ], [ 461359.934325511392672, 5481603.386539777740836 ], [ 461364.389480529061984, 5481610.802477731369436 ], [ 461383.026516349927988, 5481599.661560050211847 ], [ 461383.796160883968696, 5481600.949056571349502 ], [ 461365.161938835284673, 5481612.088292219676077 ] ] ] ] } }
]
}
