{
"type": "FeatureCollection",
"name": "05_MA_Entwurfsfläche",
"crs": { "type": "name", "properties": { "name": "urn:ogc:def:crs:EPSG::25832" } },
"features": [
{ "type": "Feature", "properties": { "fid": 1, "fid_2": null, "gen_id": null, "pg_pk": null, "a03_art": null, "a04_art": null, "a05_belag": null, "a06_belag": null, "pk": null, "z": null, "fid_3": null, "gml_id": null, "gebaeudefunktion_id": null, "gebaeudefunktion_kuerzel": null, "gebaeudefunktion_name": null, "lage_id": null, "adressen": null, "hochhaus": null, "lage_oberflaeche_id": null, "lage_oberflaeche_name": null, "nutzung_id": null, "nutzung_name": null, "eigenname": null, "qualitaet": null, "klasse": null, "beginn": null, "ende": null, "fid_4": null, "gml_id_2": null, "gebaeudefunktion_id_2": null, "gebaeudefunktion_kuerzel_2": null, "gebaeudefunktion_name_2": null, "lage_id_2": null, "adressen_2": null, "hochhaus_2": null, "lage_oberflaeche_id_2": null, "lage_oberflaeche_name_2": null, "nutzung_id_2": null, "nutzung_name_2": null, "eigenname_2": null, "qualitaet_2": null, "klasse_2": null, "beginn_2": null, "ende_2": null, "fid_5": null, "Typ": null, "fid_6": null, "gml_id_3": null, "gebaeudefunktion_id_3": null, "gebaeudefunktion_kuerzel_3": null, "gebaeudefunktion_name_3": null, "lage_id_3": null, "adressen_3": null, "hochhaus_3": null, "lage_oberflaeche_id_3": null, "lage_oberflaeche_name_3": null, "nutzung_id_3": null, "nutzung_name_3": null, "eigenname_3": null, "qualitaet_3": null, "klasse_3": null, "beginn_3": null, "ende_3": null, "fid_7": null, "Typ_2": null, "fid_8": null, "Art": null }, "geometry": { "type": "MultiPolygon", "coordinates": [ [ [ [ 461350.785712940560188, 5481627.286987088620663 ], [ 461354.894865822454449, 5481624.797642024233937 ], [ 461355.298597962420899, 5481624.632425527088344 ], [ 461366.76212602108717, 5481617.66470870282501 ], [ 461362.935051298351027, 5481611.294257260859013 ], [ 461339.594748190254904, 5481625.413905850611627 ], [ 461337.932477533468045, 5481622.670001697726548 ], [ 461332.449860456457827, 5481626.005185283720493 ], [ 461332.586778923054226, 5481626.242335024289787 ], [ 461332.449860456457827, 5481626.005185283720493 ], [ 461337.940551535401028, 5481635.068649163469672 ], [ 461340.394122958357912, 5481633.582263505086303 ], [ 461337.130089187412523, 5481628.19433477986604 ], [ 461347.521679170080461, 5481621.8990583634004 ], [ 461350.785712940560188, 5481627.286987088620663 ] ], [ [ 461359.169499254028779, 5481622.279629431664944 ], [ 461358.158943584712688, 5481621.71455164346844 ], [ 461357.271254087390844, 5481620.701623854227364 ], [ 461356.713507765613031, 5481619.398322253488004 ], [ 461356.645733635814395, 5481617.98076814878732 ], [ 461357.040318604384083, 5481616.626411254517734 ], [ 461357.883769869979005, 5481615.468287809751928 ], [ 461359.06187007954577, 5481614.684460698626935 ], [ 461360.430592644552235, 5481614.320263135246933 ], [ 461361.860501736809965, 5481614.443081769160926 ], [ 461363.149364049721044, 5481615.032191368751228 ], [ 461364.123030240356456, 5481615.955883926711977 ], [ 461364.752004954207223, 5481617.125741033814847 ], [ 461364.977924888429698, 5481618.453548626042902 ], [ 461364.926120963471476, 5481618.780662121251225 ], [ 461359.169499254028779, 5481622.279629431664944 ], [ 461359.169499254028779, 5481622.279629431664944 ], [ 461359.169499254028779, 5481622.279629431664944 ] ] ], [ [ [ 461375.268200113729108, 5481612.494579990394413 ], [ 461372.411167594429571, 5481607.754820867441595 ], [ 461365.161938835284673, 5481612.088292219676077 ], [ 461368.043941468524281, 5481616.885600646957755 ], [ 461375.268200113729108, 5481612.494579990394413 ] ] ], [ [ [ 461363.721587039064616, 5481604.001596636138856 ], [ 461362.086392440309282, 5481601.266168444417417 ], [ 461360.632460233638994, 5481602.135448891669512 ], [ 461360.997589417267591, 5481602.743196278810501 ], [ 461359.934325511392672, 5481603.386539777740836 ], [ 461361.206900347373448, 5481605.504835546948016 ], [ 461363.721587039064616, 5481604.001596636138856 ] ] ], [ [ [ 461320.498563484754413, 5481631.367640943266451 ], [ 461338.491227362537757, 5481620.467596495524049 ], [ 461340.202506058267318, 5481623.292398039251566 ], [ 461362.162872909219004, 5481610.008908714167774 ], [ 461358.64851409610128, 5481604.158996237441897 ], [ 461318.577642084332183, 5481628.231736277230084 ], [ 461320.498563484754413, 5481631.367640943266451 ] ], [ [ 461342.750037756050006, 5481615.8233143966645 ], [ 461344.904142733081244, 5481619.374172952026129 ], [ 461341.075535212701652, 5481621.69677251111716 ], [ 461338.921430235612206, 5481618.145913955755532 ], [ 461342.750037756050006, 5481615.8233143966645 ] ] ] ] } }
]
}
