{
  "type": "FeatureCollection",
  "features": [
    {
      "type": "Feature",
      "properties": {},
      "geometry": {
        "type": "Polygon",
        "coordinates": [
          [
            [
              7.7685192,
              49.4445527
            ],
            [
              7.7688917,
              49.4442921
            ],
            [
              7.7682737,
              49.4439101
            ],
            [
              7.7678886,
              49.4441318
            ],
            [
              7.7685192,
              49.4445527
            ]
          ]
        ]
      }
    }
  ]
}