{
  "type": "FeatureCollection",
  "features": [
    {
      "type": "Feature",
      "properties": {},
      "geometry": {
        "type": "Polygon",
        "coordinates": [
          [
            [
              8.4659322,
              49.4863886
            ],
            [
              8.4670801,
              49.4859719
            ],
            [
              8.466733,
              49.4856038
            ],
            [
              8.4655993,
              49.4860205
            ],
            [
              8.4659322,
              49.4863886
            ]
          ]
        ]
      }
    }
  ]
}