{
  "type": "FeatureCollection",
  "features": [
    {
      "type": "Feature",
      "properties": {},
      "geometry": {
        "type": "Polygon",
        "coordinates": [
          [
            [
              8.4837109,
              49.4699831
            ],
            [
              8.4826796,
              49.4698136
            ],
            [
              8.4833631,
              49.4690174
            ],
            [
              8.4837508,
              49.4691224
            ],
            [
              8.4837037,
              49.4694908
            ],
            [
              8.4837396,
              49.4697031
            ],
            [
              8.4837934,
              49.4698571
            ],
            [
              8.4837109,
              49.4699831
            ]
          ]
        ]
      }
    }
  ]
}